[{"OBJECT_NAME":"GOES 18","OBJECT_ID":"2022-021A","EPOCH":"2026-03-03T18:33:34.996608","MEAN_MOTION":1.00271736,"ECCENTRICITY":6.01e-5,"INCLINATION":0.0285,"RA_OF_ASC_NODE":75.7364,"ARG_OF_PERICENTER":319.5556,"MEAN_ANOMALY":267.6184,"EPHEMERIS_TYPE":0,"CLASSIFICATION_TYPE":"U","NORAD_CAT_ID":51850,"ELEMENT_SET_NO":999,"REV_AT_EPOCH":553,"BSTAR":0,"MEAN_MOTION_DOT":8.3e-7,"MEAN_MOTION_DDOT":0},{"OBJECT_NAME":"GOES 19","OBJECT_ID":"2024-119A","EPOCH":"2026-03-03T18:50:55.834944","MEAN_MOTION":1.00272073,"ECCENTRICITY":9.71e-5,"INCLINATION":0.0185,"RA_OF_ASC_NODE":323.3882,"ARG_OF_PERICENTER":55.1468,"MEAN_ANOMALY":350.537,"EPHEMERIS_TYPE":0,"CLASSIFICATION_TYPE":"U","NORAD_CAT_ID":60133,"ELEMENT_SET_NO":999,"REV_AT_EPOCH":590,"BSTAR":0,"MEAN_MOTION_DOT":-2.62e-6,"MEAN_MOTION_DDOT":0}]
